GLOBALSTAR M068         
1 32266U 07048D   24159.94857132 -.00000057  00000+0  26201-3 0  9994
2 32266  51.9905   3.0299 0001607  60.7277  85.7533 12.62791386770275
GLOBALSTAR M079         
1 37188U 10054A   24159.38837950 -.00000074  00000+0  16693-3 0  9990
2 37188  52.0018 200.7339 0000425 179.1202 193.9524 12.62270885629126
GLOBALSTAR M074         
1 37189U 10054B   24159.84555140 -.00000078  00000+0  14489-3 0  9995
2 37189  51.9994 198.7240 0000143 149.6638  21.0427 12.62269623629780
GLOBALSTAR M076         
1 37190U 10054C   24159.87171189 -.00000064  00000+0  22302-3 0  9995
2 37190  52.0007 198.7791 0000429 232.6429 298.5100 12.62262277629505
GLOBALSTAR M077         
1 37191U 10054D   24159.70067038 -.00000117  00000+0 -72772-4 0  9992
2 37191  52.0046 156.0481 0000194 357.4120 175.2105 12.62273816629850
GLOBALSTAR M075         
1 37192U 10054E   24159.64607205 -.00000060  00000+0  24524-3 0  9999
2 37192  51.9940 241.9318 0000580 143.7146  21.3870 12.62275295628704
GLOBALSTAR M073         
1 37193U 10054F   24159.92941727 -.00000107  00000+0 -20019-4 0  9990
2 37193  52.0032 154.6032 0000117 316.9013  54.7679 12.62266201630577
GLOBALSTAR M083         
1 37739U 11033A   24159.58143823 -.00000124  00000+0 -11381-3 0  9997
2 37739  51.9854 104.9026 0000546  66.5862 104.7214 12.62270104599549
GLOBALSTAR M088         
1 37740U 11033B   24159.83708464 -.00000077  00000+0  15180-3 0  9992
2 37740  51.9755   9.9318 0000946  95.1293 278.6116 12.62263996595122
GLOBALSTAR M091         
1 37741U 11033C   24159.77117632 -.00000086  00000+0  10035-3 0  9991
2 37741  52.0013 333.0202 0001155 109.9615 262.8935 12.62263469595905
GLOBALSTAR M085         
1 37742U 11033D   24159.59934137 -.00000080  00000+0  13529-3 0  9994
2 37742  51.9874 284.9115 0000974 127.0113 245.9954 12.62271733596398
GLOBALSTAR M081         
1 37743U 11033E   24159.62600479 -.00000088  00000+0  88811-4 0  9993
2 37743  51.9968 287.3875 0000919 139.5636 233.6787 12.62265646596923
GLOBALSTAR M089         
1 37744U 11033F   24159.93814101 -.00000058  00000+0  25705-3 0  9996
2 37744  51.9924 240.7378 0000297 187.7013 343.2799 12.62264694597429
GLOBALSTAR M084         
1 38040U 11080A   24159.63437049 -.00000112  00000+0 -43766-4 0  9997
2 38040  52.0003 108.7466 0000522  10.5888 160.9983 12.62263207575642
GLOBALSTAR M080         
1 38041U 11080B   24159.89459137 -.00000114  00000+0 -54305-4 0  9991
2 38041  52.0053 109.4294 0000454 338.0459  56.6818 12.62273413575526
GLOBALSTAR M082         
1 38042U 11080C   24159.92012066 -.00000087  00000+0  94715-4 0  9999
2 38042  52.0088  64.7600 0001233  74.3450  15.6534 12.62269951576237
GLOBALSTAR M092         
1 38043U 11080D   24159.75286528 -.00000106  00000+0 -12817-4 0  9993
2 38043  52.0066 155.6245 0000274  20.3705 150.5128 12.62262859574660
GLOBALSTAR M090         
1 38044U 11080E   24159.94452769 -.00000079  00000+0  13621-3 0  9998
2 38044  51.9901  58.9762 0000928  75.3321   5.9093 12.62263811576357
GLOBALSTAR M086         
1 38045U 11080F   24158.95207922 -.00000096  00000+0  43803-4 0  9993
2 38045  51.9911  62.5186 0000533 162.4827 327.6313 12.62271428576173
GLOBALSTAR M097         
1 39072U 13005A   24159.90067775 -.00000089  00000+0  80295-4 0  9997
2 39072  52.0064 333.8022 0001003 113.8278 246.2694 12.62263630523548
GLOBALSTAR M093         
1 39073U 13005B   24159.87405244 -.00000085  00000+0  10604-3 0  9993
2 39073  51.9826 327.7840 0001097 118.0412 242.0566 12.62259979523490
GLOBALSTAR M094         
1 39074U 13005C   24159.63641662 -.00000063  00000+0  22895-3 0  9995
2 39074  51.9954 242.5149 0000710 149.3655 210.7253 12.62266665525077
GLOBALSTAR M096         
1 39075U 13005D   24159.64955351 -.00000081  00000+0  12627-3 0  9992
2 39075  52.0082 290.6961 0001066 128.7214 231.3748 12.62266422523993
GLOBALSTAR M078         
1 39076U 13005E   24159.78184436 -.00000187  00000+0 -46160-3 0  9993
2 39076  51.9895  15.3142 0001727  77.5498 282.5562 12.62275320522635
GLOBALSTAR M095         
1 39077U 13005F   24159.88681658 -.00000077  00000+0  15062-3 0  9997
2 39077  51.9819  12.3728 0001464  95.4575 264.6459 12.62263703522506
GLOBALSTAR M087         
1 52888U 22064A   24159.91790157 -.00000058  00000+0  13412-3 0  9992
2 52888  51.9752 240.7038 0009011 343.1921  16.8680 13.37576102 96289
